NORAD_CAT_ID,OBJECT_NAME,OBJECT_TYPE,EPOCH,MEAN_MOTION,ECCENTRICITY,INCLINATION,RA_OF_ASC_NODE,ARG_OF_PERICENTER,MEAN_ANOMALY,BSTAR,MEAN_MOTION_DOT,MEAN_MOTION_DDOT,TLE_LINE0,TLE_LINE1,TLE_LINE2,SEMIMAJOR_AXIS,PERIOD,APOGEE,PERIGEE,DECAYED
54089.0,STARLINK-5143,PAYLOAD,2024-05-14 13:14:27,15.08864104,0.0001524,53.2166,75.4205,85.3774,274.7392,0.00033755,5.092e-05,0.0,0 STARLINK-5143,1 54089U 22136AQ  24135.55170241  .00005092  00000-0  33755-3 0  9992,2 54089  53.2166  75.4205 0001524  85.3774 274.7392 15.08864104 86724,6917.807,95.436,540.726,538.617,0.0
54089.0,STARLINK-5143,PAYLOAD,2024-05-15 03:32:55,15.08855131,0.0001423,53.2161,72.7438,92.31,267.8055,0.00046474,7.119e-05,0.0,0 STARLINK-5143,1 54089U 22136AQ  24136.14786111  .00007119  00000-0  46474-3 0  9991,2 54089  53.2161  72.7438 0001423  92.3100 267.8055 15.08855131 87287,6917.834,95.437,540.684,538.715,0.0
54089.0,STARLINK-5143,PAYLOAD,2024-05-15 19:26:46,15.0884979,0.000158,53.2166,69.7706,88.5794,271.5379,0.00063521,9.839e-05,0.0,0 STARLINK-5143,1 54089U 22136AQ  24136.81026264  .00009839  00000-0  63521-3 0  9994,2 54089  53.2166  69.7706 0001580  88.5794 271.5379 15.08849790 87382,6917.85,95.437,540.808,538.622,0.0
54089.0,STARLINK-5143,PAYLOAD,2024-05-16 12:56:00,15.0886741,0.0001467,53.2155,66.4997,92.844,267.272,0.00082734,0.00012913,0.0,0 STARLINK-5143,1 54089U 22136AQ  24137.53889249  .00012913  00000-0  82734-3 0  9998,2 54089  53.2155  66.4997 0001467  92.8440 267.2720 15.08867410 87028,6917.797,95.436,540.676,538.647,0.0
54089.0,STARLINK-5143,PAYLOAD,2024-05-17 01:39:04,15.08860166,0.000162,53.2174,64.1205,102.6155,257.5018,0.00028844,4.308e-05,0.0,0 STARLINK-5143,1 54089U 22136AQ  24138.06880778  .00004308  00000-0  28844-3 0  9996,2 54089  53.2174  64.1205 0001620 102.6155 257.5018 15.08860166 87573,6917.819,95.436,540.804,538.563,0.0
54089.0,STARLINK-5143,PAYLOAD,2024-05-17 22:19:07,15.08823948,0.0001469,53.2163,60.2523,97.8131,262.3028,-0.00027095,-4.596e-05,0.0,0 STARLINK-5143,1 54089U 22136AQ  24138.92994361 -.00004596  00000-0 -27095-3 0  9993,2 54089  53.2163  60.2523 0001469  97.8131 262.3028 15.08823948 87236,6917.929,95.439,540.811,538.778,0.0
54089.0,STARLINK-5143,PAYLOAD,2024-05-18 01:29:54,15.08806477,0.0001204,53.2167,59.6597,91.5734,268.5396,-0.0005857,-9.588e-05,0.0,0 STARLINK-5143,1 54089U 22136AQ  24139.06243094 -.00009588  00000-0 -58570-3 0  9997,2 54089  53.2167  59.6597 0001204  91.5734 268.5396 15.08806477 87728,6917.983,95.44,540.681,539.015,0.0
54089.0,STARLINK-5143,PAYLOAD,2024-05-18 18:59:07,15.08843059,0.0001247,53.2177,56.3879,104.8735,255.2395,0.00047946,7.352e-05,0.0,0 STARLINK-5143,1 54089U 22136AQ  24139.79106166  .00007352  00000-0  47946-3 0  9995,2 54089  53.2177  56.3879 0001247 104.8735 255.2395 15.08843059 87833,6917.871,95.437,540.599,538.873,0.0
54089.0,STARLINK-5143,PAYLOAD,2024-05-18 22:09:54,15.08824924,0.0001336,53.2178,55.7932,83.3194,276.795,7.0447e-05,8.33e-06,0.0,0 STARLINK-5143,1 54089U 22136AQ  24139.92354740  .00000833  00000-0  70447-4 0  9993,2 54089  53.2178  55.7932 0001336  83.3194 276.7950 15.08824924 87381,6917.926,95.439,540.716,538.867,0.0
54089.0,STARLINK-5143,PAYLOAD,2024-05-19 01:20:40,15.08829077,0.0001326,53.2174,55.1989,91.0305,269.084,0.00019668,2.843e-05,0.0,0 STARLINK-5143,1 54089U 22136AQ  24140.05602755  .00002843  00000-0  19668-3 0  9991,2 54089  53.2174  55.1989 0001326  91.0305 269.0840 15.08829077 87873,6917.914,95.438,540.696,538.861,0.0
54089.0,STARLINK-5143,PAYLOAD,2024-05-19 18:49:56,15.08824291,0.0001332,53.2178,51.9286,83.9357,276.1787,0.00016026,2.262e-05,0.0,0 STARLINK-5143,1 54089U 22136AQ  24140.78467956  .00002262  00000-0  16026-3 0  9993,2 54089  53.2178  51.9286 0001332  83.9357 276.1787 15.08824291 87989,6917.928,95.439,540.715,538.872,0.0
54089.0,STARLINK-5143,PAYLOAD,2024-05-20 02:46:51,15.08841135,0.0001391,53.2185,50.442,84.3658,275.7493,0.00035574,5.378e-05,0.0,0 STARLINK-5143,1 54089U 22136AQ  24141.11587603  .00005378  00000-0  35574-3 0  9993,2 54089  53.2185  50.4420 0001391  84.3658 275.7493 15.08841135 88037,6917.877,95.437,540.704,538.78,0.0
54089.0,STARLINK-5143,PAYLOAD,2024-05-21 02:37:38,15.08856755,0.0001833,53.2185,45.9829,70.337,289.7819,0.00056862,8.777e-05,0.0,0 STARLINK-5143,1 54089U 22136AQ  24142.10947160  .00008777  00000-0  56862-3 0  9990,2 54089  53.2185  45.9829 0001833  70.3370 289.7819 15.08856755 87711,6917.829,95.436,540.962,538.426,0.0
54089.0,STARLINK-5143,PAYLOAD,2024-05-21 21:42:15,15.08850334,0.0001543,53.2177,42.4112,78.2071,281.9095,0.0001903,2.743e-05,0.0,0 STARLINK-5143,1 54089U 22136AQ  24142.90434680  .00002743  00000-0  19030-3 0  9999,2 54089  53.2177  42.4112 0001543  78.2071 281.9095 15.08850334 87832,6917.849,95.437,540.781,538.646,0.0
54089.0,STARLINK-5143,PAYLOAD,2024-05-22 02:28:24,15.08856319,0.0001428,53.2183,41.5202,77.2881,282.827,0.00028194,4.204e-05,0.0,0 STARLINK-5143,1 54089U 22136AQ  24143.10306445  .00004204  00000-0  28194-3 0  9994,2 54089  53.2183  41.5202 0001428  77.2881 282.8270 15.08856319 88339,6917.831,95.437,540.683,538.708,0.0
54089.0,STARLINK-5143,PAYLOAD,2024-05-22 21:33:02,15.08842286,0.0001409,53.2178,37.951,88.0776,272.0378,-1.1468e-05,-4.7e-06,0.0,0 STARLINK-5143,1 54089U 22136AQ  24143.89794490 -.00000470  00000-0 -11468-4 0  9991,2 54089  53.2178  37.9510 0001409  88.0776 272.0378 15.08842286 87984,6917.873,95.437,540.713,538.764,0.0
54089.0,STARLINK-5143,PAYLOAD,2024-05-23 02:19:11,15.0884981,0.0001553,53.2186,37.0569,85.5929,274.5241,0.00022303,3.264e-05,0.0,0 STARLINK-5143,1 54089U 22136AQ  24144.09666371  .00003264  00000-0  22303-3 0  9991,2 54089  53.2186  37.0569 0001553  85.5929 274.5241 15.08849810 88482,6917.85,95.437,540.79,538.641,0.0
54089.0,STARLINK-5143,PAYLOAD,2024-05-23 21:23:49,15.08844961,0.0001734,53.2197,33.4831,105.5753,254.5431,0.00021049,3.064e-05,0.0,0 STARLINK-5143,1 54089U 22136AQ  24144.89154550  .00003064  00000-0  21049-3 0  9994,2 54089  53.2197  33.4831 0001734 105.5753 254.5431 15.08844961 88600,6917.865,95.437,540.93,538.531,0.0
54089.0,STARLINK-5143,PAYLOAD,2024-05-23 22:59:12,15.08847861,0.0001863,53.218,33.1958,66.7844,293.3344,0.00017573,2.51e-05,0.0,0 STARLINK-5143,1 54089U 22136AQ  24144.95778540  .00002510  00000-0  17573-3 0  9994,2 54089  53.2180  33.1958 0001863  66.7844 293.3344 15.08847861 88146,6917.856,95.437,541.01,538.433,0.0
54089.0,STARLINK-5143,PAYLOAD,2024-05-24 22:50:00,15.08827938,0.0001407,53.2167,28.7368,93.5565,266.5589,-0.00025045,-4.27e-05,0.0,0 STARLINK-5143,1 54089U 22136AQ  24145.95139077 -.00004270  00000-0 -25045-3 0  9991,2 54089  53.2167  28.7368 0001407  93.5565 266.5589 15.08827938 88762,6917.917,95.438,540.756,538.809,0.0
54089.0,STARLINK-5143,PAYLOAD,2024-05-24 22:50:05,15.08676917,0.0001093,53.2166,28.7481,355.4093,4.6889,-0.003119,-0.00049366,0.0,0 STARLINK-5143,1 54089U 22136AQ  24145.95145086 -.00049366  00000-0 -31190-2 0  9990,2 54089  53.2166  28.7481 0001093 355.4093   4.6889 15.08676917 88295,6918.379,95.448,541.0,539.488,0.0
54089.0,STARLINK-5143,PAYLOAD,2024-05-25 21:05:24,15.08839372,0.0001222,53.2165,24.5725,87.0415,273.0717,3.9684e-05,3.44e-06,0.0,0 STARLINK-5143,1 54089U 22136AQ  24146.87875039  .00000344  00000-0  39684-4 0  9999,2 54089  53.2165  24.5725 0001222  87.0415 273.0717 15.08839372 88905,6917.882,95.438,540.593,538.902,0.0
54089.0,STARLINK-5143,PAYLOAD,2024-05-26 01:51:33,15.08833914,0.0001607,53.2172,23.6779,78.4822,281.635,-2.883e-05,-7.47e-06,0.0,0 STARLINK-5143,1 54089U 22136AQ  24147.07747443 -.00000747  00000-0 -28830-4 0  9999,2 54089  53.2172  23.6779 0001607  78.4822 281.6350 15.08833914 88932,6917.899,95.438,540.876,538.652,0.0
54089.0,STARLINK-5143,PAYLOAD,2024-05-26 20:56:11,15.08843217,0.0001524,53.2176,20.1109,106.6981,253.4179,0.00020232,2.934e-05,0.0,0 STARLINK-5143,1 54089U 22136AQ  24147.87235260  .00002934  00000-0  20232-3 0  9991,2 54089  53.2176  20.1109 0001524 106.6981 253.4179 15.08843217 89050,6917.871,95.437,540.79,538.681,0.0
54089.0,STARLINK-5143,PAYLOAD,2024-05-27 14:25:25,15.08841113,0.0001571,53.2174,16.8416,87.3088,272.8084,0.00018647,2.681e-05,0.0,0 STARLINK-5143,1 54089U 22136AQ  24148.60099373  .00002681  00000-0  18647-3 0  9992,2 54089  53.2174  16.8416 0001571  87.3088 272.8084 15.08841113 88698,6917.877,95.437,540.829,538.655,0.0
54089.0,STARLINK-5143,PAYLOAD,2024-05-27 20:46:58,15.08841701,0.0001558,53.2182,15.6508,102.8843,257.2323,0.00019822,2.868e-05,0.0,0 STARLINK-5143,1 54089U 22136AQ  24148.86595339  .00002868  00000-0  19822-3 0  9996,2 54089  53.2182  15.6508 0001558 102.8843 257.2323 15.08841701 89207,6917.875,95.437,540.818,538.662,0.0
54089.0,STARLINK-5143,PAYLOAD,2024-05-27 22:22:21,15.08843379,0.0001488,53.2178,15.3534,96.6343,263.4819,0.0001545,2.172e-05,0.0,0 STARLINK-5143,1 54089U 22136AQ  24148.93219243  .00002172  00000-0  15450-3 0  9992,2 54089  53.2178  15.3534 0001488  96.6343 263.4819 15.08843379 88745,6917.87,95.437,540.764,538.706,0.0
54089.0,STARLINK-5143,PAYLOAD,2024-05-28 07:54:40,15.08846049,0.0001513,53.2181,13.5698,93.6277,266.4888,0.00012904,1.767e-05,0.0,0 STARLINK-5143,1 54089U 22136AQ  24149.32963054  .00001767  00000-0  12904-3 0  9992,2 54089  53.2181  13.5698 0001513  93.6277 266.4888 15.08846049 88805,6917.862,95.437,540.774,538.68,0.0
54089.0,STARLINK-5143,PAYLOAD,2024-05-28 22:13:08,15.08847167,0.0001494,53.2177,10.8932,86.3579,273.7584,8.9628e-05,1.139e-05,0.0,0 STARLINK-5143,1 54089U 22136AQ  24149.92578917  .00001139  00000-0  89628-4 0  9999,2 54089  53.2177  10.8932 0001494  86.3579 273.7584 15.08847167 88898,6917.858,95.437,540.757,538.69,0.0
54089.0,STARLINK-5143,PAYLOAD,2024-05-28 23:48:31,15.08848259,0.0001505,53.2178,10.5959,90.1338,269.9827,0.00010265,1.346e-05,0.0,0 STARLINK-5143,1 54089U 22136AQ  24149.99202814  .00001346  00000-0  10265-3 0  9996,2 54089  53.2178  10.5959 0001505  90.1338 269.9827 15.08848259 89378,6917.855,95.437,540.761,538.679,0.0
